{
    "links": {
        "self": "http://www.neowsapp.com/rest/v1/neo/3831894?api_key=iIulBulltgU6a56xZRHN4H3l9WmuAYTsLGpBGhQ2"
    },
    "id": "3831894",
    "neo_reference_id": "3831894",
    "name": "(2018 UH1)",
    "designation": "2018 UH1",
    "nasa_jpl_url": "http://ssd.jpl.nasa.gov/sbdb.cgi?sstr=3831894",
    "absolute_magnitude_h": 25.1,
    "estimated_diameter": {
        "kilometers": {
            "estimated_diameter_min": 0.0253837029,
            "estimated_diameter_max": 0.0567596853
        },
        "meters": {
            "estimated_diameter_min": 25.3837029364,
            "estimated_diameter_max": 56.7596852866
        },
        "miles": {
            "estimated_diameter_min": 0.0157726969,
            "estimated_diameter_max": 0.0352688224
        },
        "feet": {
            "estimated_diameter_min": 83.279867942,
            "estimated_diameter_max": 186.2194458756
        }
    },
    "is_potentially_hazardous_asteroid": false,
    "close_approach_data": [
        {
            "close_approach_date": "2018-10-24",
            "close_approach_date_full": "2018-Oct-24 05:00",
            "epoch_date_close_approach": 1540357200000,
            "relative_velocity": {
                "kilometers_per_second": "13.0029818598",
                "kilometers_per_hour": "46810.7346954582",
                "miles_per_hour": "29086.3701222973"
            },
            "miss_distance": {
                "astronomical": "0.0136538449",
                "lunar": "5.3113456661",
                "kilometers": "2042586.114350363",
                "miles": "1269204.1576784894"
            },
            "orbiting_body": "Earth"
        },
        {
            "close_approach_date": "2018-12-02",
            "close_approach_date_full": "2018-Dec-02 19:08",
            "epoch_date_close_approach": 1543777680000,
            "relative_velocity": {
                "kilometers_per_second": "7.0207152005",
                "kilometers_per_hour": "25274.5747218933",
                "miles_per_hour": "15704.6378320564"
            },
            "miss_distance": {
                "astronomical": "0.1364339423",
                "lunar": "53.0728035547",
                "kilometers": "20410227.163782901",
                "miles": "12682327.0722539938"
            },
            "orbiting_body": "Venus"
        }
    ],
    "orbital_data": {
        "orbit_id": "4",
        "orbit_determination_date": "2018-10-25 11:56:02",
        "first_observation_date": "2018-10-18",
        "last_observation_date": "2018-10-22",
        "data_arc_in_days": 4,
        "observations_used": 77,
        "orbit_uncertainty": "8",
        "minimum_orbit_intersection": ".0128732",
        "jupiter_tisserand_invariant": "3.924",
        "epoch_osculation": "2458410.5",
        "eccentricity": ".5394356635728637",
        "semi_major_axis": "1.766911577985293",
        "inclination": "4.229257220557572",
        "ascending_node_longitude": "201.0265754450166",
        "orbital_period": "857.8683624812492",
        "perihelion_distance": ".813776458440221",
        "perihelion_argument": "251.5324337729244",
        "aphelion_distance": "2.720046697530365",
        "perihelion_time": "2458458.540941576224",
        "mean_anomaly": "339.83986853482",
        "mean_motion": ".4196448030310346",
        "equinox": "J2000",
        "orbit_class": {
            "orbit_class_type": "APO",
            "orbit_class_description": "Near-Earth asteroid orbits which cross the Earth’s orbit similar to that of 1862 Apollo",
            "orbit_class_range": "a (semi-major axis) > 1.0 AU; q (perihelion) < 1.017 AU"
        }
    },
    "is_sentry_object": false
}